{
  "type": "FeatureCollection",
  "features": [
    {
      "type": "Feature",
      "properties": {
        "name": "SATI Campus",
        "description": "Area coverage of SATI"
      },
      "geometry": {
        "type": "Polygon",
        "coordinates": [
          [
            [
              77.81919137017579,
              23.520901507661055
            ],
            [
              77.82187756849333,
              23.522672275554307
            ],
            [
              77.82180905247104,
              23.520231155800804
            ],
            [
              77.82077068599713,
              23.51719497717432
            ],
            [
              77.8205148623251,
              23.516621752009737
            ],
            [
              77.8209860993014,
              23.51388949051791
            ],
            [
              77.81869004112221,
              23.51356271859782
            ],
            [
              77.81791416290007,
              23.515544019465416
            ],
            [
              77.81753411788708,
              23.516294802051213
            ],
            [
              77.81683631418068,
              23.517956679947552
            ],
            [
              77.81737578806799,
              23.51866887650717
            ],
            [
              77.81805477378408,
              23.51914189918778
            ],
            [
              77.81894997283955,
              23.520387053724967
            ],
            [
              77.81919137017579,
              23.520901507661055
            ]
          ]
        ]
      }
    },
    {
      "type": "Feature",
      "properties": {
        "name": "Academic Block",
        "description": "Main academic area of the college"
      },
      "geometry": {
        "type": "Polygon",
        "coordinates": [
          [
            [
              77.82185993794548,
              23.522645743058668
            ],
            [
              77.81983509123147,
              23.52134537737448
            ],
            [
              77.82002611060119,
              23.52109589873578
            ],
            [
              77.81964221882313,
              23.520855973848576
            ],
            [
              77.81982480581425,
              23.520582886754827
            ],
            [
              77.82013862426278,
              23.520715692256125
            ],
            [
              77.82036258871618,
              23.520443932706765
            ],
            [
              77.82070508831167,
              23.520648185951057
            ],
            [
              77.82123755924917,
              23.520026067431438
            ],
            [
              77.82174349243502,
              23.520338576813987
            ],
            [
              77.82185993794548,
              23.522645743058668
            ]
          ]
        ]
      }
    },
    {
      "type": "Feature",
      "properties": {
        "name": "Main Gate Area",
        "description": "Covers college main gate"
      },
      "geometry": {
        "type": "Polygon",
        "coordinates": [
          [
            [
              77.81982825083173,
              23.520556625942625
            ],
            [
              77.81962835175648,
              23.520822868229033
            ],
            [
              77.81998410302872,
              23.521086017686386
            ],
            [
              77.81979747602072,
              23.521351346737227
            ],
            [
              77.81908706620699,
              23.5208842742994
            ],
            [
              77.8191595264442,
              23.5201446491936
            ],
            [
              77.81982825083173,
              23.520556625942625
            ]
          ]
        ]
      }
    },
    {
      "type": "Feature",
      "properties": {
        "name": "Polytechnic College",
        "description": "polytechnic college area"
      },
      "geometry": {
        "type": "Polygon",
        "coordinates": [
          [
            [
              77.81943046207213,
              23.51926544546758
            ],
            [
              77.82119871548814,
              23.518790160517405
            ],
            [
              77.82184780435999,
              23.520347370930175
            ],
            [
              77.82115086725058,
              23.52001234272558
            ],
            [
              77.82069132724635,
              23.520630950241557
            ],
            [
              77.82033089708402,
              23.52040688072801
            ],
            [
              77.8200934586267,
              23.520687613180645
            ],
            [
              77.81943018072708,
              23.52025281890122
            ],
            [
              77.81943046207213,
              23.51926544546758
            ]
          ]
        ]
      }
    },
    {
      "type": "Feature",
      "properties": {
        "name": "Canteen area",
        "description": "Canteen + Alumini Transit Hall Area"
      },
      "geometry": {
        "type": "Polygon",
        "coordinates": [
          [
            [
              77.81932110470045,
              23.519305583358662
            ],
            [
              77.81982519998833,
              23.519140136129007
            ],
            [
              77.8198134170956,
              23.518585389037803
            ],
            [
              77.81940251128367,
              23.518566287573417
            ],
            [
              77.81932110470045,
              23.519305583358662
            ]
          ]
        ]
      }
    },
    {
      "type": "Feature",
      "properties": {
        "name": "Polytechnic Ground",
        "description": "Ground in front of KSH"
      },
      "geometry": {
        "type": "Polygon",
        "coordinates": [
          [
            [
              77.81941920651208,
              23.518484551117545
            ],
            [
              77.81977519255233,
              23.518549096867712
            ],
            [
              77.81982964177408,
              23.519110913134202
            ],
            [
              77.82104172854844,
              23.518808203855688
            ],
            [
              77.8207246358217,
              23.517620624812135
            ],
            [
              77.81946341275967,
              23.517659584992696
            ],
            [
              77.81941920651208,
              23.518484551117545
            ]
          ]
        ]
      }
    },
    {
      "type": "Feature",
      "properties": {
        "name": "SATI Sports Ground",
        "description": "Sports Ground + Sports Complex"
      },
      "geometry": {
        "type": "Polygon",
        "coordinates": [
          [
            [
              77.81934601837044,
              23.51819914338445
            ],
            [
              77.81683848059733,
              23.518008196612385
            ],
            [
              77.81775762993409,
              23.516111216561427
            ],
            [
              77.81944510775276,
              23.516324917488
            ],
            [
              77.81934601837044,
              23.51819914338445
            ]
          ]
        ]
      }
    },
    {
      "type": "Feature",
      "properties": {
        "name": "Girls Hostels",
        "description": "Indira Gandhi, Kalpana Chawla, Gajra Raje, Politechnic"
      },
      "geometry": {
        "type": "Polygon",
        "coordinates": [
          [
            [
              77.81946080106056,
              23.51628629881741
            ],
            [
              77.81781652656935,
              23.51616297818823
            ],
            [
              77.81828856110393,
              23.514572154063156
            ],
            [
              77.81871207343598,
              23.51465874591418
            ],
            [
              77.81857698393118,
              23.515245449256035
            ],
            [
              77.81948735584102,
              23.515304578721462
            ],
            [
              77.81946080106056,
              23.51628629881741
            ]
          ]
        ]
      }
    },
    {
      "type": "Feature",
      "properties": {
        "name": "Boy's Hostels",
        "description": "JLN, CVR, RNT, Old Polytechnic, New Polytechnic"
      },
      "geometry": {
        "type": "Polygon",
        "coordinates": [
          [
            [
              77.81957330974394,
              23.51544147210108
            ],
            [
              77.82075873124549,
              23.51541466781894
            ],
            [
              77.8210201510068,
              23.513898331621544
            ],
            [
              77.81968506951196,
              23.513674242801063
            ],
            [
              77.81957330974394,
              23.51544147210108
            ]
          ]
        ]
      }
    },
    {
      "type": "Feature",
      "properties": {
        "name": "Kailsh Sathyarthi Hall",
        "description": "Kailash Sathyarathi Auditorium"
      },
      "geometry": {
        "type": "Polygon",
        "coordinates": [
          [
            [
              77.81945029031296,
              23.517639233020784
            ],
            [
              77.8207570533252,
              23.51757140924611
            ],
            [
              77.82066601613421,
              23.51715403140212
            ],
            [
              77.81948442925957,
              23.517223594467996
            ],
            [
              77.81945029031296,
              23.517639233020784
            ]
          ]
        ]
      }
    },
    {
      "type": "Feature",
      "properties": {
        "name": "principal residance Area",
        "description": "Principal Residance Area"
      },
      "geometry": {
        "type": "Polygon",
        "coordinates": [
          [
            [
              77.81923367874043,
              23.51856137870597
            ],
            [
              77.8176578388407,
              23.51868393840426
            ],
            [
              77.81912007081812,
              23.52006071726547
            ],
            [
              77.81923367874043,
              23.51856137870597
            ]
          ]
        ]
      }
    }
  ]
}
