{"type":"FeatureCollection","features":[{"type":"Feature","geometry":{"type":"Point","coordinates":[77.41161708265376,23.160375096119285]},"properties":{"number":81,"label":"Ward-81"}},{"type":"Feature","geometry":{"type":"Point","coordinates":[77.41489324986078,23.186678941089927]},"properties":{"number":80,"label":"ward-80"}},{"type":"Feature","geometry":{"type":"Point","coordinates":[77.42499862681731,23.172904350271583]},"properties":{"number":82,"label":"ward-82"}},{"type":"Feature","geometry":{"type":"Point","coordinates":[77.41685012726859,23.170631279967143]},"properties":{"number":83,"label":"ward-83"}},{"type":"Feature","geometry":{"type":"Point","coordinates":[77.41196372825735,23.149943099884833]},"properties":{"number":84,"label":"ward-84"}},{"type":"Feature","geometry":{"type":"Point","coordinates":[77.51464031694827,23.158862229429186]},"properties":{"number":85,"label":"ward-85"}},{"type":"Feature","geometry":{"type":"Point","coordinates":[77.45210499850856,23.210394301661854]},"properties":{"number":54,"label":"ward-54"}},{"type":"Feature","geometry":{"type":"Point","coordinates":[77.46472104862751,23.195109049094814]},"properties":{"number":55,"label":"Ward-55"}},{"type":"Feature","geometry":{"type":"Point","coordinates":[77.464869986124,23.19006518416376]},"properties":{"number":53,"label":"ward-53"}},{"type":"Feature","geometry":{"type":"Point","coordinates":[77.45495752536843,23.181396810859862]},"properties":{"number":52,"label":"Ward-52"}},{"type":"Feature","geometry":{"type":"Point","coordinates":[77.42683432555258,23.227281375235467]},"properties":{"number":46,"label":"Ward-46"}},{"type":"Feature","geometry":{"type":"Point","coordinates":[77.40854332805397,23.227340680029226]},"properties":{"number":31,"label":"Ward-31"}},{"type":"Feature","geometry":{"type":"Point","coordinates":[77.41958630587439,23.197737483104227]},"properties":{"number":51,"label":"Ward-51"}},{"type":"Feature","geometry":{"type":"Point","coordinates":[77.40006364167631,23.234845346422752]},"properties":{"number":32,"label":"Ward-32"}},{"type":"Feature","geometry":{"type":"Point","coordinates":[77.40697229669118,23.221422966575457]},"properties":{"number":30,"label":"Ward-30"}},{"type":"Feature","geometry":{"type":"Point","coordinates":[77.39369724333751,23.26011563774699]},"properties":{"number":8,"label":"Ward-08"}},{"type":"Feature","geometry":{"type":"Point","coordinates":[77.39997250435276,23.261655760642007]},"properties":{"number":21,"label":"Ward-21"}},{"type":"Feature","geometry":{"type":"Point","coordinates":[77.3880745245526,23.265455509052234]},"properties":{"number":10,"label":"Ward-10"}},{"type":"Feature","geometry":{"type":"Point","coordinates":[77.37372024306988,23.266786070268697]},"properties":{"number":7,"label":"Ward-07"}},{"type":"Feature","geometry":{"type":"Point","coordinates":[77.36710993179794,23.274966915739512]},"properties":{"number":6,"label":"Ward-06"}},{"type":"Feature","geometry":{"type":"Point","coordinates":[77.3672230280235,23.274891702191617]},"properties":{"number":2,"label":"Ward-02"}},{"type":"Feature","geometry":{"type":"Point","coordinates":[77.34106977231662,23.271666807169936]},"properties":{"number":5,"label":"Ward-05"}},{"type":"Feature","geometry":{"type":"Point","coordinates":[77.33549432161793,23.271313106828345]},"properties":{"number":4,"label":"Ward-04"}},{"type":"Feature","geometry":{"type":"Point","coordinates":[77.28861521111952,23.27061753526823]},"properties":{"number":3,"label":"Ward-03"}},{"type":"Feature","geometry":{"type":"Point","coordinates":[77.34461348899487,23.297221181336685]},"properties":{"number":1,"label":"Ward-01"}},{"type":"Feature","geometry":{"type":"Point","coordinates":[77.4141733582995,23.251172040297945]},"properties":{"number":34,"label":"Ward-34"}},{"type":"Feature","geometry":{"type":"Point","coordinates":[77.41507751860973,23.253270741034367]},"properties":{"number":35,"label":"Ward-35"}},{"type":"Feature","geometry":{"type":"Point","coordinates":[77.4198092904249,23.24946991555118]},"properties":{"number":42,"label":"Ward-42"}},{"type":"Feature","geometry":{"type":"Point","coordinates":[77.40312691578146,23.236494423565052]},"properties":{"number":33,"label":"Ward-33"}},{"type":"Feature","geometry":{"type":"Point","coordinates":[77.40835359668824,23.224983861995646]},"properties":{"number":47,"label":"Ward-47"}},{"type":"Feature","geometry":{"type":"Point","coordinates":[77.39470839527011,23.225227347558697]},"properties":{"number":28,"label":"Ward-28"}},{"type":"Feature","geometry":{"type":"Point","coordinates":[77.39356888667027,23.216675427218544]},"properties":{"number":27,"label":"Ward-27"}},{"type":"Feature","geometry":{"type":"Point","coordinates":[77.3977033408389,23.212173035443715]},"properties":{"number":29,"label":"Ward-29"}},{"type":"Feature","geometry":{"type":"Point","coordinates":[77.38642290936936,23.225220192116424]},"properties":{"number":26,"label":"Ward-26"}},{"type":"Feature","geometry":{"type":"Point","coordinates":[77.39413003059018,23.23745490212256]},"properties":{"number":25,"label":"Ward-25"}},{"type":"Feature","geometry":{"type":"Point","coordinates":[77.39985816481881,23.243942753189547]},"properties":{"number":24,"label":"Ward-24"}},{"type":"Feature","geometry":{"type":"Point","coordinates":[77.40071902477597,23.250656329900643]},"properties":{"number":22,"label":"Ward-22"}},{"type":"Feature","geometry":{"type":"Point","coordinates":[77.40820487554713,23.25835608258707]},"properties":{"number":23,"label":"Ward-23"}},{"type":"Feature","geometry":{"type":"Point","coordinates":[77.40136417604401,23.265066422701775]},"properties":{"number":19,"label":"Ward-19"}},{"type":"Feature","geometry":{"type":"Point","coordinates":[77.40238483620152,23.276526305131878]},"properties":{"number":13,"label":"Ward-13"}},{"type":"Feature","geometry":{"type":"Point","coordinates":[77.39976628707839,23.272120424141196]},"properties":{"number":14,"label":"Ward-14"}},{"type":"Feature","geometry":{"type":"Point","coordinates":[77.3979719364057,23.270905835249444]},"properties":{"number":11,"label":"Ward-11"}},{"type":"Feature","geometry":{"type":"Point","coordinates":[77.39510917499554,23.269667912271974]},"properties":{"number":9,"label":"Ward-09"}},{"type":"Feature","geometry":{"type":"Point","coordinates":[77.39487637203607,23.28544762378817]},"properties":{"number":12,"label":"Ward-12"}},{"type":"Feature","geometry":{"type":"Point","coordinates":[77.43470964527916,23.247841206344333]},"properties":{"number":44,"label":"Ward-44"}},{"type":"Feature","geometry":{"type":"Point","coordinates":[77.44128583671332,23.233184140601892]},"properties":{"number":58,"label":"Ward-58"}},{"type":"Feature","geometry":{"type":"Point","coordinates":[77.43927867933412,23.247470669056167]},"properties":{"number":59,"label":"Ward-59"}},{"type":"Feature","geometry":{"type":"Point","coordinates":[77.42689892588773,23.258383161802392]},"properties":{"number":69,"label":"Ward-69"}},{"type":"Feature","geometry":{"type":"Point","coordinates":[77.47358068912837,23.2135913713752]},"properties":{"number":56,"label":"Ward-56"}},{"type":"Feature","geometry":{"type":"Point","coordinates":[77.45706578355636,23.218681540856178]},"properties":{"number":57,"label":"Ward-57"}},{"type":"Feature","geometry":{"type":"Point","coordinates":[77.46962283828127,23.22585546023498]},"properties":{"number":60,"label":"Ward-60"}},{"type":"Feature","geometry":{"type":"Point","coordinates":[77.48599300469425,23.232254978997776]},"properties":{"number":61,"label":"Ward-61"}},{"type":"Feature","geometry":{"type":"Point","coordinates":[77.4010553292046,23.295337188670544]},"properties":{"number":77,"label":"Ward-77"}},{"type":"Feature","geometry":{"type":"Point","coordinates":[77.3982249925332,23.301109871146128]},"properties":{"number":78,"label":"Ward-78"}},{"type":"Feature","geometry":{"type":"Point","coordinates":[77.37827367264376,23.312033827354448]},"properties":{"number":75,"label":"Ward-75"}},{"type":"Feature","geometry":{"type":"Point","coordinates":[77.40409321988236,23.303088534416737]},"properties":{"number":79,"label":"Ward-79"}},{"type":"Feature","geometry":{"type":"Point","coordinates":[77.41831211645626,23.28094625723962]},"properties":{"number":76,"label":"Ward-76"}},{"type":"Feature","geometry":{"type":"Point","coordinates":[77.4635560249882,23.250624658911942]},"properties":{"number":67,"label":"Ward-67"}},{"type":"Feature","geometry":{"type":"Point","coordinates":[77.47254369607562,23.250619185583272]},"properties":{"number":64,"label":"Ward-64"}},{"type":"Feature","geometry":{"type":"Point","coordinates":[77.48457283323876,23.25168972218681]},"properties":{"number":63,"label":"Ward-63"}},{"type":"Feature","geometry":{"type":"Point","coordinates":[77.48682003653654,23.251533384695975]},"properties":{"number":62,"label":"Ward-62"}},{"type":"Feature","geometry":{"type":"Point","coordinates":[77.4599136934209,23.267740012557265]},"properties":{"number":66,"label":"Ward-66"}},{"type":"Feature","geometry":{"type":"Point","coordinates":[77.4598964092119,23.2677366879334]},"properties":{"number":65,"label":"Ward-65"}},{"type":"Feature","geometry":{"type":"Point","coordinates":[77.47027768187328,23.26626211381864]},"properties":{"number":68,"label":"Ward-68"}},{"type":"Feature","geometry":{"type":"Point","coordinates":[77.44667648166062,23.2820822250483]},"properties":{"number":74,"label":"Ward-74"}},{"type":"Feature","geometry":{"type":"Point","coordinates":[77.43242740345651,23.29826940091211]},"properties":{"number":72,"label":"Ward-72"}},{"type":"Feature","geometry":{"type":"Point","coordinates":[77.43244155955256,23.298245444350396]},"properties":{"number":73,"label":"Ward-73"}},{"type":"Feature","geometry":{"type":"Point","coordinates":[77.40516395301663,23.261375681304713]},"properties":{"number":20,"label":"Ward-20"}},{"type":"Feature","geometry":{"type":"Point","coordinates":[77.40633006030164,23.265632604208]},"properties":{"number":18,"label":"Ward-18"}},{"type":"Feature","geometry":{"type":"Point","coordinates":[77.40318272331649,23.26888146718393]},"properties":{"number":17,"label":"Ward-17"}},{"type":"Feature","geometry":{"type":"Point","coordinates":[77.40322088393602,23.278449033264422]},"properties":{"number":16,"label":"Ward-16"}},{"type":"Feature","geometry":{"type":"Point","coordinates":[77.40419052992542,23.2764585689946]},"properties":{"number":15,"label":"Ward-15"}},{"type":"Feature","geometry":{"type":"Point","coordinates":[77.41942740521318,23.267308340884604]},"properties":{"number":36,"label":"Ward-36"}},{"type":"Feature","geometry":{"type":"Point","coordinates":[77.4241533899639,23.277988645711854]},"properties":{"number":37,"label":"Ward-37"}},{"type":"Feature","geometry":{"type":"Point","coordinates":[77.42399005443066,23.277980141603226]},"properties":{"number":38,"label":"Ward-38"}},{"type":"Feature","geometry":{"type":"Point","coordinates":[77.41992845696706,23.25758007066599]},"properties":{"number":40,"label":"Ward-40"}},{"type":"Feature","geometry":{"type":"Point","coordinates":[77.41967263238968,23.259198273967584]},"properties":{"number":39,"label":"Ward-39"}},{"type":"Feature","geometry":{"type":"Point","coordinates":[77.42661671493953,23.255116031315826]},"properties":{"number":41,"label":"Ward-41"}},{"type":"Feature","geometry":{"type":"Point","coordinates":[77.43547495204767,23.25524887118371]},"properties":{"number":70,"label":"Ward-70"}},{"type":"Feature","geometry":{"type":"Point","coordinates":[77.43018716344686,23.2606472191098]},"properties":{"number":71,"label":"Ward-71"}},{"type":"Feature","geometry":{"type":"Point","coordinates":[77.43588905930945,23.233123153995734]},"properties":{"number":45,"label":"Ward-45"}},{"type":"Feature","geometry":{"type":"Point","coordinates":[77.42884761096046,23.251079910833745]},"properties":{"number":43,"label":"Ward-43"}},{"type":"Feature","geometry":{"type":"Point","coordinates":[77.43757278455823,23.207753374847496]},"properties":{"number":49,"label":"Ward-49"}},{"type":"Feature","geometry":{"type":"Point","coordinates":[77.42570568439858,23.202716576967013]},"properties":{"number":48,"label":"Ward-48"}},{"type":"Feature","geometry":{"type":"Point","coordinates":[77.43744947775205,23.19875543536489]},"properties":{"number":50,"label":"Wrad-50"}}]}