{"type":"FeatureCollection","features":[{"type":"Feature","geometry":{"type":"Point","coordinates":[77.41165619510224,23.16036704279239]},"properties":{"number":18,"label":"Zone-18"}},{"type":"Feature","geometry":{"type":"Point","coordinates":[77.50034080605784,23.14305618338019]},"properties":{"number":19,"label":"zone-19"}},{"type":"Feature","geometry":{"type":"Point","coordinates":[77.42865844999082,23.227421766708034]},"properties":{"number":7,"label":"Zone-07"}},{"type":"Feature","geometry":{"type":"Point","coordinates":[77.4286124424452,23.227452718635895]},"properties":{"number":9,"label":"Zone-09"}},{"type":"Feature","geometry":{"type":"Point","coordinates":[77.46209490155101,23.201007319303336]},"properties":{"number":13,"label":"Zone-13"}},{"type":"Feature","geometry":{"type":"Point","coordinates":[77.39375698068163,23.26008652124955]},"properties":{"number":2,"label":"Zone-02"}},{"type":"Feature","geometry":{"type":"Point","coordinates":[77.33555627860967,23.271352321796293]},"properties":{"number":1,"label":"Zone-01"}},{"type":"Feature","geometry":{"type":"Point","coordinates":[77.40957702357053,23.242157058700446]},"properties":{"number":8,"label":"Zone-08"}},{"type":"Feature","geometry":{"type":"Point","coordinates":[77.3943047039683,23.213636923396997]},"properties":{"number":6,"label":"Zone-06"}},{"type":"Feature","geometry":{"type":"Point","coordinates":[77.39620547807525,23.24994818135786]},"properties":{"number":5,"label":"Zone-05"}},{"type":"Feature","geometry":{"type":"Point","coordinates":[77.40318259745841,23.278445852298514]},"properties":{"number":3,"label":"Zone-03"}},{"type":"Feature","geometry":{"type":"Point","coordinates":[77.4346679540428,23.247891355645216]},"properties":{"number":12,"label":"Zone-12"}},{"type":"Feature","geometry":{"type":"Point","coordinates":[77.45830267776081,23.231417641685045]},"properties":{"number":14,"label":"Zone-14"}},{"type":"Feature","geometry":{"type":"Point","coordinates":[77.40109795627338,23.29532809414115]},"properties":{"number":17,"label":"Zone-17"}},{"type":"Feature","geometry":{"type":"Point","coordinates":[77.46353657080405,23.250641981285554]},"properties":{"number":15,"label":"Zone-15"}},{"type":"Feature","geometry":{"type":"Point","coordinates":[77.46350947370463,23.250682769714846]},"properties":{"number":16,"label":"Zone-16"}},{"type":"Feature","geometry":{"type":"Point","coordinates":[77.40517911541181,23.26137301671486]},"properties":{"number":4,"label":"Zone-04"}},{"type":"Feature","geometry":{"type":"Point","coordinates":[77.41962137287868,23.26680033667791]},"properties":{"number":10,"label":"Zone-10"}},{"type":"Feature","geometry":{"type":"Point","coordinates":[77.42669578531356,23.255065875391054]},"properties":{"number":11,"label":"Zone-11"}}]}